stk.v.4.3 

BEGIN Ephemeris 
 
NumberOfEphemerisPoints		146 
ScenarioEpoch	    4 Sep 2020  2:33: 3.989091218 
InterpolationMethod		Lagrange 
InterpolationOrder		5 
CentralBody				Earth 
CoordinateSystem			TEME 
CoordinateSystemEpoch	  4 Sep 2020  2:33: 3.989091218 
DistanceUnit			Kilometers 
 
EphemerisTimePosVel 
 
       0.00000000   -4082.02902106    5881.12551049       0.03789349 -0.379798485 -0.274835010  7.448642554
 END Ephemeris 
